ONEWEB-0113             
1 48050U 21025J   24094.07664055  .00000119  00000+0  29074-3 0  9994
2 48050  87.8906 120.4904 0001863  88.6323 271.5020 13.13469313147895
ONEWEB-0112             
1 48051U 21025K   24093.83541030  .00000375  00000+0  99063-3 0  9994
2 48051  87.8898 120.5423 0002058  91.7728 268.3637 13.13470250147872
ONEWEB-0156             
1 48052U 21025L   24093.76875554  .00000177  00000+0  45007-3 0  9997
2 48052  87.8905 120.5497 0002039  93.3047 266.8316 13.13469520147846
ONEWEB-0161             
1 48053U 21025M   24093.81794449  .00000253  00000+0  65883-3 0  9996
2 48053  87.8905 120.5453 0002028 100.8262 259.3095 13.13471665147787
ONEWEB-0158             
1 48054U 21025N   24093.77985097 -.00000155  00000+0 -45898-3 0  9990
2 48054  87.8906 120.5455 0001992  88.9067 271.2290 13.13471021147909
ONEWEB-0157             
1 48055U 21025P   24094.10836687 -.00000213  00000+0 -61707-3 0  9991
2 48055  87.8903 120.4961 0002214  96.2945 263.8436 13.13471055147897
ONEWEB-0162             
1 48056U 21025Q   24094.14804484  .00000186  00000+0  47566-3 0  9990
2 48056  87.8900 120.4849 0002036  92.2516 267.8846 13.13470415147845
ONEWEB-0155             
1 48057U 21025R   24093.78779049 -.00000295  00000+0 -84158-3 0  9999
2 48057  87.8903 120.5660 0001974  94.2392 265.8963 13.13470621147954
ONEWEB-0149             
1 48058U 21025S   24093.80842173 -.00000115  00000+0 -35040-3 0  9999
2 48058  87.8899 120.5586 0002245  91.2739 268.8647 13.13469077147764
ONEWEB-0148             
1 48059U 21025T   24093.77351651  .00000043  00000+0  84052-4 0  9998
2 48059  87.8907 120.5728 0002656  93.8325 266.3108 13.13469454147885
ONEWEB-0160             
1 48060U 21025U   24094.09408128 -.00000264  00000+0 -75846-3 0  9995
2 48060  87.8906 120.5048 0001702  63.6537 296.4767 13.13471404147874
ONEWEB-0163             
1 48061U 21025V   24093.77508628 -.00000010  00000+0 -61052-4 0  9990
2 48061  87.8904 120.5629 0002150 100.9027 259.2344 13.13471052147951
ONEWEB-0159             
1 48062U 21025W   24093.76397593  .00000297  00000+0  77960-3 0  9996
2 48062  87.8902 120.5495 0002220  95.8123 264.3259 13.13471445147877
ONEWEB-0164             
1 48063U 21025X   24094.12741995  .00000215  00000+0  55276-3 0  9993
2 48063  87.8900 120.4869 0001827  94.4156 265.7182 13.13470964147913
ONEWEB-0167             
1 48064U 21025Y   24093.77587632 -.00000016  00000+0 -78946-4 0  9991
2 48064  87.8905 120.5678 0002094  98.6289 261.5077 13.13469847147845
ONEWEB-0166             
1 48065U 21025Z   24094.10202497 -.00000263  00000+0 -75490-3 0  9997
2 48065  87.8900 120.4893 0002230  92.2236 267.9149 13.13470885147960
ONEWEB-0151             
1 48066U 21025AA  24093.57037843 -.00000273  00000+0 -78364-3 0  9993
2 48066  87.8902 120.6067 0001801  95.6933 264.4401 13.13471434147832
ONEWEB-0170             
1 48067U 21025AB  24093.80683208 -.00000121  00000+0 -36729-3 0  9993
2 48067  87.8902 120.5610 0001326  89.1113 271.0168 13.13471300147821
ONEWEB-0168             
1 48068U 21025AC  24093.79254001 -.00000064  00000+0 -21001-3 0  9990
2 48068  87.8908 120.5320 0002144  94.9962 265.1412 13.13466158147833
ONEWEB-0173             
1 48069U 21025AD  24093.78461171 -.00000220  00000+0 -63756-3 0  9995
2 48069  87.8907 120.5434 0002032 108.4977 251.6373 13.13470971148073
ONEWEB-0171             
1 48070U 21025AE  24093.82112064  .00000244  00000+0  63243-3 0  9991
2 48070  87.8904 120.5714 0001895  97.9786 262.1558 13.13471067147897
ONEWEB-0172             
1 48071U 21025AF  24093.80047662 -.00000236  00000+0 -68096-3 0  9995
2 48071  87.8907 120.5421 0001888  99.7261 260.4082 13.13471021148788
ONEWEB-0174             
1 48072U 21025AG  24093.78301982 -.00000136  00000+0 -40630-3 0  9994
2 48072  87.8907 120.5598 0002160  92.5071 267.6306 13.13469168148101
ONEWEB-0175             
1 48073U 21025AH  24093.81158979 -.00000020  00000+0 -88898-4 0  9996
2 48073  87.8899 120.5472 0001569  97.0906 263.0401 13.13470639147764
ONEWEB-0177             
1 48074U 21025AJ  24094.12900203  .00000320  00000+0  84058-3 0  9991
2 48074  87.8899 120.4906 0002304 103.5104 256.6282 13.13471161147998
ONEWEB-0178             
1 48075U 21025AK  24094.14659783  .00000233  00000+0  60408-3 0  9994
2 48075  87.8908 120.4998 0002114  99.8416 260.2952 13.13470437148040
ONEWEB-0108             
1 48076U 21025AL  24094.10678345 -.00000778  00000+0 -21659-2 0  9996
2 48076  87.8900 120.4930 0002225  75.0772 285.0603 13.13467474147979
ONEWEB-0169             
1 48077U 21025AM  24093.83382037  .00000368  00000+0  97335-3 0  9994
2 48077  87.8903 120.5553 0002114  86.6571 273.4800 13.13470236146583
ONEWEB-0176             
1 48210U 21031A   24093.70062012 -.00000140  00000+0 -41180-3 0  9991
2 48210  87.8898  89.9888 0001904  87.7257 272.4090 13.14504856142496
ONEWEB-0184             
1 48211U 21031B   24093.97812039  .00000250  00000+0  63993-3 0  9999
2 48211  87.8893  89.9195 0001022 113.0361 247.0876 13.14502639142502
ONEWEB-0179             
1 48212U 21031C   24094.02408125  .00001056  00000+0  28117-2 0  9997
2 48212  87.8942  89.9123 0001646  88.0210 272.1108 13.14517273142557
ONEWEB-0180             
1 48213U 21031D   24093.75292532  .00000240  00000+0  61282-3 0  9995
2 48213  87.8895  89.9648 0002045  94.9820 265.1544 13.14504377142405
ONEWEB-0218             
1 48214U 21031E   24094.23184681 -.00000045  00000+0 -15460-3 0  9997
2 48214  87.8895  89.8709 0001363 124.3295 235.7964 13.14502985142625
ONEWEB-0209             
1 48215U 21031F   24094.22074630  .00000655  00000+0  17308-2 0  9996
2 48215  87.8900  89.9053 0002140  92.2593 267.8782 13.14505594142627
ONEWEB-0198             
1 48216U 21031G   24093.74818037  .00000263  00000+0  67523-3 0  9990
2 48216  87.8896  90.0051 0001804 102.9470 257.1861 13.14502943142672
ONEWEB-0189             
1 48217U 21031H   24093.68474877  .00000111  00000+0  26590-3 0  9995
2 48217  87.8897  89.9937 0001857 104.8146 255.3189 13.14503200142404
ONEWEB-0196             
1 48218U 21031J   24094.04313335  .00000179  00000+0  44835-3 0  9994
2 48218  87.8897  89.9244 0001806  90.6862 269.4474 13.14503827142449
ONEWEB-0183             
1 48219U 21031K   24093.94163432 -.00000131  00000+0 -38894-3 0  9992
2 48219  87.8896  89.9619 0002035  90.1663 269.9700 13.14504266142539
ONEWEB-0185             
1 48220U 21031L   24093.96781305  .00000222  00000+0  56297-3 0  9997
2 48220  87.8893  89.9296 0002110  92.8139 267.3232 13.14503188142466
ONEWEB-0187             
1 48221U 21031M   24093.93767832 -.00000156  00000+0 -45534-3 0  9994
2 48221  87.8897  89.9672 0002096  90.7012 269.4358 13.14503099142473
ONEWEB-0192             
1 48222U 21031N   24093.68950505  .00000015  00000+0  47213-5 0  9998
2 48222  87.8898  90.0137 0001815  92.6361 267.4977 13.14503498142355
ONEWEB-0219             
1 48223U 21031P   24093.89723300  .00000261  00000+0  66820-3 0  9999
2 48223  87.8897  89.9468 0002063  94.0146 266.1219 13.14501626142583
ONEWEB-0202             
1 48224U 21031Q   24093.95431945  .00000000  00000+0 -34484-4 0  9992
2 48224  87.8893  89.9556 0001647 116.3044 243.8255 13.14504472142573
ONEWEB-0204             
1 48225U 21031R   24093.68395364  .00000145  00000+0  35528-3 0  9995
2 48225  87.8898  90.0218 0002279  81.1534 278.9853 13.14503347142430
ONEWEB-0205             
1 48226U 21031S   24093.88772707  .00000086  00000+0  19652-3 0  9992
2 48226  87.8894  89.9520 0002086  94.4954 265.6414 13.14503836142472
ONEWEB-0206             
1 48227U 21031T   24093.93688530 -.00000157  00000+0 -45833-3 0  9990
2 48227  87.8892  89.9335 0002171  91.9370 268.2009 13.14503285142437
ONEWEB-0182             
1 48228U 21031U   24093.93212305 -.00000134  00000+0 -39600-3 0  9994
2 48228  87.8897  89.9582 0002079  84.5822 275.5544 13.14504127142648
ONEWEB-0186             
1 48229U 21031V   24094.24770008 -.00000192  00000+0 -55320-3 0  9990
2 48229  87.8897  89.8597 0001872  91.2671 268.8673 13.14503247142641
ONEWEB-0181             
1 48230U 21031W   24093.69266264  .00000047  00000+0  90950-4 0  9990
2 48230  87.8897  90.0396 0001813  93.5287 266.6050 13.14504895142417
ONEWEB-0188             
1 48231U 21031X   24094.03520754 -.00000008  00000+0 -55271-4 0  9993
2 48231  87.8895  89.9680 0001990  89.5045 270.6313 13.14502995142362
ONEWEB-0220             
1 48232U 21031Y   24094.22707575 -.00000015  00000+0 -75026-4 0  9991
2 48232  87.8892  89.8986 0002220  96.3736 263.7646 13.14503747142658
ONEWEB-0165             
1 48233U 21031Z   24093.95115079 -.00000041  00000+0 -14431-3 0  9994
2 48233  87.8896  89.9654 0001939  95.3447 264.7904 13.14502993142571
ONEWEB-0199             
1 48234U 21031AA  24094.23976134 -.00000161  00000+0 -46999-3 0  9991
2 48234  87.8896  89.8783 0002021  91.8610 268.2751 13.14504153142513
ONEWEB-0203             
1 48235U 21031AB  24094.23025162 -.00000001  00000+0 -38221-4 0  9991
2 48235  87.8897  89.8815 0001394  84.5050 275.6239 13.14503997142529
ONEWEB-0197             
1 48236U 21031AC  24093.52061898  .00000267  00000+0  68430-3 0  9995
2 48236  87.8896  90.0311 0002250  82.1680 277.9705 13.14503210142340
ONEWEB-0194             
1 48237U 21031AD  24093.72756115  .00000056  00000+0  11727-3 0  9994
2 48237  87.8896  89.9821 0001685  81.9935 278.1386 13.14503254142543
ONEWEB-0193             
1 48238U 21031AE  24093.89565369  .00000262  00000+0  67132-3 0  9992
2 48238  87.8897  89.9568 0001785  92.7937 267.3397 13.14503534142516
ONEWEB-0191             
1 48239U 21031AF  24094.21122891  .00000230  00000+0  58599-3 0  9991
2 48239  87.8896  89.8796 0001832  89.3979 270.7361 13.14503009142414
ONEWEB-0195             
1 48240U 21031AG  24093.95988049  .00000077  00000+0  17291-3 0  9991
2 48240  87.8892  89.9294 0001928 103.1912 256.9433 13.14503468142363
